NORAD_CAT_ID,OBJECT_NAME,OBJECT_TYPE,EPOCH,MEAN_MOTION,ECCENTRICITY,INCLINATION,RA_OF_ASC_NODE,ARG_OF_PERICENTER,MEAN_ANOMALY,BSTAR,MEAN_MOTION_DOT,MEAN_MOTION_DDOT,TLE_LINE0,TLE_LINE1,TLE_LINE2,SEMIMAJOR_AXIS,PERIOD,APOGEE,PERIGEE,DECAYED
52579.0,STARLINK-3893,PAYLOAD,2024-03-12 04:59:14,15.08835188,0.0001305,53.2165,159.9131,69.5147,290.5985,5.4031e-05,5.72e-06,0.0,0 STARLINK-3893,1 52579U 22051AV  24072.20780345  .00000572  00000-0  54031-4 0  9993,2 52579  53.2165 159.9131 0001305  69.5147 290.5985 15.08835188101627,6917.895,95.438,540.663,538.857,0.0
52579.0,STARLINK-3893,PAYLOAD,2024-03-12 22:28:28,15.08837995,0.0001425,53.2166,156.6423,77.529,282.5862,3.8253e-05,3.21e-06,0.0,0 STARLINK-3893,1 52579U 22051AV  24072.93644351  .00000321  00000-0  38253-4 0  9999,2 52579  53.2166 156.6423 0001425  77.5290 282.5862 15.08837995101664,6917.887,95.438,540.737,538.766,0.0
52579.0,STARLINK-3893,PAYLOAD,2024-03-13 11:11:33,15.08844027,0.0001535,53.2173,154.2633,88.3475,271.7693,-7.3729e-05,-1.461e-05,0.0,0 STARLINK-3893,1 52579U 22051AV  24073.46636413 -.00001461  00000-0 -73729-4 0  9993,2 52579  53.2173 154.2633 0001535  88.3475 271.7693 15.08844027101819,6917.868,95.437,540.795,538.671,0.0
52579.0,STARLINK-3893,PAYLOAD,2024-03-13 14:22:19,15.08847294,0.0001703,53.2179,153.6664,75.6724,284.4457,-5.4305e-05,-1.152e-05,0.0,0 STARLINK-3893,1 52579U 22051AV  24073.59884140 -.00001152  00000-0 -54305-4 0  9995,2 52579  53.2179 153.6664 0001703  75.6724 284.4457 15.08847294101767,6917.858,95.437,540.901,538.545,0.0
52579.0,STARLINK-3893,PAYLOAD,2024-03-14 14:13:06,15.08847696,0.0001945,53.2192,149.2041,90.8789,269.2426,0.00010961,1.457e-05,0.0,0 STARLINK-3893,1 52579U 22051AV  24074.59243537  .00001457  00000-0  10961-3 0  9990,2 52579  53.2192 149.2041 0001945  90.8789 269.2426 15.08847696101987,6917.857,95.437,541.067,538.376,0.0
52579.0,STARLINK-3893,PAYLOAD,2024-03-15 04:31:36,15.08827778,0.0001097,53.2188,146.5289,83.0498,277.0619,-2.7352e-05,-7.23e-06,0.0,0 STARLINK-3893,1 52579U 22051AV  24075.18861157 -.00000723  00000-0 -27352-4 0  9990,2 52579  53.2188 146.5289 0001097  83.0498 277.0619 15.08827778102076,6917.918,95.438,540.542,539.024,0.0
52579.0,STARLINK-3893,PAYLOAD,2024-03-15 10:53:07,15.08840007,0.0001754,53.2175,145.3431,86.0879,274.0314,5.7579e-06,-1.96e-06,0.0,0 STARLINK-3893,1 52579U 22051AV  24075.45356422 -.00000196  00000-0  57579-5 0  9992,2 52579  53.2175 145.3431 0001754  86.0879 274.0314 15.08840007102118,6917.88,95.438,540.959,538.532,0.0
52579.0,STARLINK-3893,PAYLOAD,2024-03-16 04:22:25,15.08816014,0.0001725,53.2176,142.0694,93.3946,266.7244,-0.00026236,-4.458e-05,0.0,0 STARLINK-3893,1 52579U 22051AV  24076.18223619 -.00004458  00000-0 -26236-3 0  9994,2 52579  53.2176 142.0694 0001725  93.3946 266.7244 15.08816014102221,6917.954,95.439,541.012,538.625,0.0
52579.0,STARLINK-3893,PAYLOAD,2024-03-16 10:43:55,15.08845659,0.0001564,53.2176,140.8797,96.8587,263.2583,2.222e-06,-2.53e-06,0.0,0 STARLINK-3893,1 52579U 22051AV  24076.44717211 -.00000253  00000-0  22220-5 0  9998,2 52579  53.2176 140.8797 0001564  96.8587 263.2583 15.08845659102260,6917.863,95.437,540.81,538.646,0.0
52579.0,STARLINK-3893,PAYLOAD,2024-03-16 13:54:42,15.08845091,0.00016,53.2174,140.2853,94.4004,265.7171,-5.0914e-06,-3.69e-06,0.0,0 STARLINK-3893,1 52579U 22051AV  24076.57965302 -.00000369  00000-0 -50914-5 0  9998,2 52579  53.2174 140.2853 0001600  94.4004 265.7171 15.08845091102219,6917.865,95.437,540.837,538.623,0.0
52579.0,STARLINK-3893,PAYLOAD,2024-03-17 04:13:10,15.08812554,9.88e-05,53.2172,137.6095,80.6902,279.4201,0.00060165,9.293e-05,0.0,0 STARLINK-3893,1 52579U 22051AV  24077.17581153  .00009293  00000-0  60165-3 0  9993,2 52579  53.2172 137.6095 0000988  80.6902 279.4201 15.08812554102378,6917.964,95.439,540.513,539.146,0.0
52579.0,STARLINK-3893,PAYLOAD,2024-03-17 10:34:41,15.08853908,0.0001665,53.2171,136.4205,107.0938,253.0236,0.00021147,3.08e-05,0.0,0 STARLINK-3893,1 52579U 22051AV  24077.44076027  .00003080  00000-0  21147-3 0  9997,2 52579  53.2171 136.4205 0001665 107.0938 253.0236 15.08853908102412,6917.838,95.437,540.855,538.551,0.0
52579.0,STARLINK-3893,PAYLOAD,2024-03-18 04:03:57,15.0884664,0.0001691,53.2177,133.1539,88.9111,271.2075,8.5928e-05,1.08e-05,0.0,0 STARLINK-3893,1 52579U 22051AV  24078.16941117  .00001080  00000-0  85928-4 0  9994,2 52579  53.2177 133.1539 0001691  88.9111 271.2075 15.08846640102521,6917.86,95.437,540.895,538.555,0.0
52579.0,STARLINK-3893,PAYLOAD,2024-03-18 10:25:29,15.08846115,0.0001446,53.2175,131.9613,95.0169,265.0988,2.6703e-05,1.37e-06,0.0,0 STARLINK-3893,1 52579U 22051AV  24078.43437146  .00000137  00000-0  26703-4 0  9994,2 52579  53.2175 131.9613 0001446  95.0169 265.0988 15.08846115102495,6917.862,95.437,540.727,538.726,0.0
52579.0,STARLINK-3893,PAYLOAD,2024-03-19 08:40:52,15.08852872,0.0001682,53.2171,127.7986,100.5976,259.5206,-2.7478e-05,-7.26e-06,0.0,0 STARLINK-3893,1 52579U 22051AV  24079.36172402 -.00000726  00000-0 -27478-4 0  9994,2 52579  53.2171 127.7986 0001682 100.5976 259.5206 15.08852872102709,6917.841,95.437,540.87,538.542,0.0
52579.0,STARLINK-3893,PAYLOAD,2024-03-20 08:31:41,15.08831679,0.0001894,53.2167,123.3376,115.6346,244.4841,-2.8947e-05,-7.49e-06,0.0,0 STARLINK-3893,1 52579U 22051AV  24080.35533705 -.00000749  00000-0 -28947-4 0  9999,2 52579  53.2167 123.3376 0001894 115.6346 244.4841 15.08831679102858,6917.906,95.438,541.081,538.461,0.0
52579.0,STARLINK-3893,PAYLOAD,2024-03-21 11:33:13,15.0885543,0.0001582,53.2168,118.2814,91.3648,268.7526,0.00012886,1.764e-05,0.0,0 STARLINK-3893,1 52579U 22051AV  24081.48140047  .00001764  00000-0  12886-3 0  9997,2 52579  53.2168 118.2814 0001582  91.3648 268.7526 15.08855430103028,6917.833,95.437,540.793,538.604,0.0
52579.0,STARLINK-3893,PAYLOAD,2024-03-22 01:51:41,15.08839286,0.000194,53.2163,115.6024,141.158,218.9552,0.00012275,1.666e-05,0.0,0 STARLINK-3893,1 52579U 22051AV  24082.07756804  .00001666  00000-0  12275-3 0  9990,2 52579  53.2163 115.6024 0001940 141.1580 218.9552 15.08839286103111,6917.883,95.438,541.09,538.406,0.0
52579.0,STARLINK-3893,PAYLOAD,2024-03-22 09:48:37,15.08846542,0.0001626,53.2159,114.1212,122.2355,237.8795,0.00016526,2.344e-05,0.0,0 STARLINK-3893,1 52579U 22051AV  24082.40876351  .00002344  00000-0  16526-3 0  9994,2 52579  53.2159 114.1212 0001626 122.2355 237.8795 15.08846542103099,6917.86,95.437,540.85,538.601,0.0
52579.0,STARLINK-3893,PAYLOAD,2024-03-23 01:42:29,15.08841757,0.0001487,53.217,111.1439,100.2993,259.8167,-0.00010551,-1.967e-05,0.0,0 STARLINK-3893,1 52579U 22051AV  24083.07117687 -.00001967  00000-0 -10551-3 0  9992,2 52579  53.2170 111.1439 0001487 100.2993 259.8167 15.08841757103268,6917.875,95.437,540.769,538.711,0.0
52579.0,STARLINK-3893,PAYLOAD,2024-03-23 19:11:43,15.08846138,0.0001562,53.217,107.8715,95.3689,264.7481,-5.4315e-05,-1.152e-05,0.0,0 STARLINK-3893,1 52579U 22051AV  24083.79981188 -.00001152  00000-0 -54315-4 0  9999,2 52579  53.2170 107.8715 0001562  95.3689 264.7481 15.08846138103304,6917.862,95.437,540.807,538.646,0.0
52579.0,STARLINK-3893,PAYLOAD,2024-03-24 04:44:02,15.08849735,0.0001422,53.2151,106.0896,96.0027,264.1127,0.0001419,1.972e-05,0.0,0 STARLINK-3893,1 52579U 22051AV  24084.19724894  .00001972  00000-0  14190-3 0  9997,2 52579  53.2151 106.0896 0001422  96.0027 264.1127 15.08849735103434,6917.851,95.437,540.699,538.732,0.0
52579.0,STARLINK-3893,PAYLOAD,2024-03-24 07:54:48,15.08857753,0.0001557,53.2152,105.4933,105.5609,254.5555,0.00026107,3.871e-05,0.0,0 STARLINK-3893,1 52579U 22051AV  24084.32972475  .00003871  00000-0  26107-3 0  9993,2 52579  53.2152 105.4933 0001557 105.5609 254.5555 15.08857753103382,6917.826,95.436,540.768,538.614,0.0
52579.0,STARLINK-3893,PAYLOAD,2024-03-25 06:10:13,15.08843396,0.0001474,53.2156,101.3311,102.3089,257.8069,0.00022621,3.314e-05,0.0,0 STARLINK-3893,1 52579U 22051AV  24085.25709506  .00003314  00000-0  22621-3 0  9998,2 52579  53.2156 101.3311 0001474 102.3089 257.8069 15.08843396103593,6917.87,95.437,540.755,538.715,0.0
52579.0,STARLINK-3893,PAYLOAD,2024-03-25 07:45:36,15.08845752,0.0001345,53.2151,101.0332,91.9946,268.12,0.00034623,5.227e-05,0.0,0 STARLINK-3893,1 52579U 22051AV  24085.32333492  .00005227  00000-0  34623-3 0  9993,2 52579  53.2151 101.0332 0001345  91.9946 268.1200 15.08845752103534,6917.863,95.437,540.658,538.797,0.0
52579.0,STARLINK-3893,PAYLOAD,2024-03-26 04:25:38,15.08823884,0.0001459,53.2158,97.1671,90.8108,269.3051,0.00082934,0.0001293,0.0,0 STARLINK-3893,1 52579U 22051AV  24086.18447022  .00012930  00000-0  82934-3 0  9990,2 52579  53.2158  97.1671 0001459  90.8108 269.3051 15.08823884103737,6917.93,95.439,540.804,538.785,0.0
52579.0,STARLINK-3893,PAYLOAD,2024-03-26 10:47:10,15.08830836,0.0001443,53.2155,95.9764,89.6618,270.454,0.00028128,4.19e-05,0.0,0 STARLINK-3893,1 52579U 22051AV  24086.44942941  .00004190  00000-0  28128-3 0  9993,2 52579  53.2155  95.9764 0001443  89.6618 270.4540 15.08830836103706,6917.908,95.438,540.772,538.775,0.0
52579.0,STARLINK-3893,PAYLOAD,2024-03-26 17:08:43,15.08833697,0.0001414,53.2163,94.7886,100.0176,260.0976,0.00039108,5.941e-05,0.0,0 STARLINK-3893,1 52579U 22051AV  24086.71439075  .00005941  00000-0  39108-3 0  9997,2 52579  53.2163  94.7886 0001414 100.0176 260.0976 15.08833697103742,6917.9,95.438,540.743,538.786,0.0
52579.0,STARLINK-3893,PAYLOAD,2024-03-27 07:27:10,15.08847603,0.0001256,53.2158,92.1128,99.4003,260.7131,0.00034314,5.179e-05,0.0,0 STARLINK-3893,1 52579U 22051AV  24087.31054379  .00005179  00000-0  34314-3 0  9991,2 52579  53.2158  92.1128 0001256  99.4003 260.7131 15.08847603103901,6917.857,95.437,540.591,538.853,0.0
52579.0,STARLINK-3893,PAYLOAD,2024-03-27 16:59:29,15.08848992,0.000127,53.2157,90.3285,100.4317,259.6818,0.00030866,4.629e-05,0.0,0 STARLINK-3893,1 52579U 22051AV  24087.70798293  .00004629  00000-0  30866-3 0  9991,2 52579  53.2157  90.3285 0001270 100.4317 259.6818 15.08848992103890,6917.853,95.437,540.596,538.839,0.0
